GLOBALSTAR M084         
1 38040U 11080A   24127.55025965 -.00000062  00000+0  23454-3 0  9997
2 38040  51.9995 206.4232 0000404 169.3780 296.4381 12.62262015571313
GLOBALSTAR M080         
1 38041U 11080B   24127.52350010 -.00000075  00000+0  15947-3 0  9999
2 38041  52.0047 207.9703 0000688 172.4673 290.6152 12.62272116571431
GLOBALSTAR M082         
1 38042U 11080C   24127.86847889 -.00000063  00000+0  22898-3 0  9992
2 38042  52.0053 162.3243 0000598  36.0497 135.0389 12.62269272572356
GLOBALSTAR M092         
1 38043U 11080D   24127.51425611 -.00000092  00000+0  63388-4 0  9992
2 38043  52.0078 253.7540 0000429 130.7108 351.4716 12.62279854570592
GLOBALSTAR M090         
1 38044U 11080E   24127.38502861 -.00000061  00000+0  23729-3 0  9991
2 38044  51.9862 158.1271 0000380  59.7333 314.2968 12.62262918572240
GLOBALSTAR M086         
1 38045U 11080F   24127.52105323 -.00000065  00000+0  21891-3 0  9992
2 38045  51.9872 158.2323 0001087 134.4377  18.0426 12.62270533572201
GLOBALSTAR M097         
1 39072U 13005A   24127.59347885 -.00000118  00000+0 -79387-4 0  9994
2 39072  52.0052  72.1447 0000762  70.9613 289.1337 12.62262550519462
GLOBALSTAR M093         
1 39073U 13005B   24127.56682725 -.00000106  00000+0 -10353-4 0  9992
2 39073  51.9820  66.1782 0000904  69.8732 290.2232 12.62263776519419
